[{"OBJECT_NAME":"STARLINK-31654","OBJECT_ID":"2024-098A","EPOCH":"2026-03-09T21:30:44.538912","MEAN_MOTION":15.27576821,"ECCENTRICITY":9.601e-5,"INCLINATION":43.0009,"RA_OF_ASC_NODE":269.4004,"ARG_OF_PERICENTER":275.2408,"MEAN_ANOMALY":84.8334,"EPHEMERIS_TYPE":0,"CLASSIFICATION_TYPE":"U","NORAD_CAT_ID":59858,"ELEMENT_SET_NO":999,"REV_AT_EPOCH":10195,"BSTAR":5.8677594e-5,"MEAN_MOTION_DOT":1.353e-5,"MEAN_MOTION_DDOT":0},{"OBJECT_NAME":"TEVEL2-9","OBJECT_ID":"2025-052AD","EPOCH":"2026-03-09T16:51:18.321696","MEAN_MOTION":15.28633834,"ECCENTRICITY":0.000799,"INCLINATION":97.4057,"RA_OF_ASC_NODE":324.3929,"ARG_OF_PERICENTER":124.2475,"MEAN_ANOMALY":235.9522,"EPHEMERIS_TYPE":0,"CLASSIFICATION_TYPE":"U","NORAD_CAT_ID":63237,"ELEMENT_SET_NO":999,"REV_AT_EPOCH":5481,"BSTAR":0.00067240159,"MEAN_MOTION_DOT":0.00018694,"MEAN_MOTION_DDOT":0}]
